[{"OBJECT_NAME":"EOSSAT-1","OBJECT_ID":"2023-001AW","EPOCH":"2026-03-09T17:40:07.010400","MEAN_MOTION":15.32339828,"ECCENTRICITY":0.00112629,"INCLINATION":97.3357,"RA_OF_ASC_NODE":130.2294,"ARG_OF_PERICENTER":110.3168,"MEAN_ANOMALY":249.9285,"EPHEMERIS_TYPE":0,"CLASSIFICATION_TYPE":"U","NORAD_CAT_ID":55053,"ELEMENT_SET_NO":999,"REV_AT_EPOCH":17668,"BSTAR":0.00024844399,"MEAN_MOTION_DOT":7.695e-5,"MEAN_MOTION_DDOT":0},{"OBJECT_NAME":"STARLINK-32863","OBJECT_ID":"2025-029W","EPOCH":"2026-03-09T16:13:24.792096","MEAN_MOTION":15.30198072,"ECCENTRICITY":8.343e-5,"INCLINATION":53.1573,"RA_OF_ASC_NODE":232.651,"ARG_OF_PERICENTER":62.0065,"MEAN_ANOMALY":298.102,"EPHEMERIS_TYPE":0,"CLASSIFICATION_TYPE":"U","NORAD_CAT_ID":62968,"ELEMENT_SET_NO":999,"REV_AT_EPOCH":6045,"BSTAR":0.00090243843,"MEAN_MOTION_DOT":0.00026462,"MEAN_MOTION_DDOT":0}]
