EOSSAT-1                
1 55053U 23001AW  26068.73619225  .00007695  00000+0  24844-3 0  9992
2 55053  97.3357 130.2294 0011263 110.3168 249.9285 15.32339828176689
STARLINK-32863          
1 62968U 25029W   26068.67598138  .00026462  00000+0  90244-3 0  9999
2 62968  53.1573 232.6510 0000834  62.0065 298.1020 15.30198072 60453
